{
  "type": "FeatureCollection",
  "features": [
    {
      "type": "Feature",
      "properties": {
        "norad_id": 40128,
        "name": "GSAT0201 (GALILEO 5)",
        "group": "gnss",
        "lat": 29.14410421887608,
        "lon": -50.438890576546534,
        "alt_km": 24249.106005909936,
        "timestamp": "2025-12-22T04:03:39.411504+00:00",
        "meta_object_name": "GSAT0201 (GALILEO 5)",
        "meta_object_id": "2014-050A",
        "meta_epoch": "2025-12-21T00:18:08.005824",
        "meta_mean_motion": 1.85519694,
        "meta_eccentricity": 0.16487459,
        "meta_inclination": 49.0672,
        "meta_ra_of_asc_node": 280.7264,
        "meta_arg_of_pericenter": 172.5923,
        "meta_mean_anomaly": 190.2386,
        "meta_ephemeris_type": 0,
        "meta_classification_type": "U",
        "meta_norad_cat_id": 40128,
        "meta_element_set_no": 999,
        "meta_rev_at_epoch": 7501,
        "meta_bstar": 0,
        "meta_mean_motion_dot": -4.1e-07,
        "meta_mean_motion_ddot": 0,
        "tle_line1": "1 40128U 14050A   25355.01259266 -.00000041  00000+0  00000+0 0  9990",
        "tle_line2": "2 40128  49.0672 280.7264 1648745 172.5923 190.2386  1.85519694 75018"
      },
      "geometry": {
        "type": "Point",
        "coordinates": [
          -50.438890576546534,
          29.14410421887608
        ]
      }
    },
    {
      "type": "Feature",
      "properties": {
        "norad_id": 40129,
        "name": "GSAT0202 (GALILEO 6)",
        "group": "gnss",
        "lat": -48.58167091291541,
        "lon": 178.75524181947085,
        "alt_km": 20792.381634144393,
        "timestamp": "2025-12-22T04:03:39.411515+00:00",
        "meta_object_name": "GSAT0202 (GALILEO 6)",
        "meta_object_id": "2014-050B",
        "meta_epoch": "2025-12-18T13:46:22.484640",
        "meta_mean_motion": 1.85520466,
        "meta_eccentricity": 0.16491259,
        "meta_inclination": 49.0858,
        "meta_ra_of_asc_node": 279.9095,
        "meta_arg_of_pericenter": 173.2442,
        "meta_mean_anomaly": 189.3393,
        "meta_ephemeris_type": 0,
        "meta_classification_type": "U",
        "meta_norad_cat_id": 40129,
        "meta_element_set_no": 999,
        "meta_rev_at_epoch": 7713,
        "meta_bstar": 0,
        "meta_mean_motion_dot": -5.9e-07,
        "meta_mean_motion_ddot": 0,
        "tle_line1": "1 40129U 14050B   25352.57387135 -.00000059  00000+0  00000+0 0  9995",
        "tle_line2": "2 40129  49.0858 279.9095 1649125 173.2442 189.3393  1.85520466 77135"
      },
      "geometry": {
        "type": "Point",
        "coordinates": [
          178.75524181947085,
          -48.58167091291541
        ]
      }
    },
    {
      "type": "Feature",
      "properties": {
        "norad_id": 40269,
        "name": "IRNSS-1C",
        "group": "gnss",
        "lat": 3.664275566878791,
        "lon": -124.82279220503872,
        "alt_km": 35844.90226096096,
        "timestamp": "2025-12-22T04:03:39.411527+00:00",
        "meta_object_name": "IRNSS-1C",
        "meta_object_id": "2014-061A",
        "meta_epoch": "2025-12-21T18:17:28.513248",
        "meta_mean_motion": 1.0027378,
        "meta_eccentricity": 0.0018068,
        "meta_inclination": 6.0646,
        "meta_ra_of_asc_node": 92.4409,
        "meta_arg_of_pericenter": 1.1419,
        "meta_mean_anomaly": 354.3574,
        "meta_ephemeris_type": 0,
        "meta_classification_type": "U",
        "meta_norad_cat_id": 40269,
        "meta_element_set_no": 999,
        "meta_rev_at_epoch": 4090,
        "meta_bstar": 0,
        "meta_mean_motion_dot": -1.44e-06,
        "meta_mean_motion_ddot": 0,
        "tle_line1": "1 40269U 14061A   25355.76213557 -.00000144  00000+0  00000+0 0  9997",
        "tle_line2": "2 40269   6.0646  92.4409 0018068   1.1419 354.3574  1.00273780 40904"
      },
      "geometry": {
        "type": "Point",
        "coordinates": [
          -124.82279220503872,
          3.664275566878791
        ]
      }
    },
    {
      "type": "Feature",
      "properties": {
        "norad_id": 40294,
        "name": "GPS BIIF-8  (PRN 03)",
        "group": "gnss",
        "lat": 6.324918901563669,
        "lon": -146.34863773439952,
        "alt_km": 20218.1566300864,
        "timestamp": "2025-12-22T04:03:39.411539+00:00",
        "meta_object_name": "GPS BIIF-8  (PRN 03)",
        "meta_object_id": "2014-068A",
        "meta_epoch": "2025-12-21T10:24:33.832224",
        "meta_mean_motion": 2.00565456,
        "meta_eccentricity": 0.00608151,
        "meta_inclination": 56.8641,
        "meta_ra_of_asc_node": 37.8098,
        "meta_arg_of_pericenter": 69.0115,
        "meta_mean_anomaly": 291.7086,
        "meta_ephemeris_type": 0,
        "meta_classification_type": "U",
        "meta_norad_cat_id": 40294,
        "meta_element_set_no": 999,
        "meta_rev_at_epoch": 8164,
        "meta_bstar": 0,
        "meta_mean_motion_dot": -5.2e-07,
        "meta_mean_motion_ddot": 0,
        "tle_line1": "1 40294U 14068A   25355.43372491 -.00000052  00000+0  00000+0 0  9997",
        "tle_line2": "2 40294  56.8641  37.8098 0060815  69.0115 291.7086  2.00565456 81643"
      },
      "geometry": {
        "type": "Point",
        "coordinates": [
          -146.34863773439952,
          6.324918901563669
        ]
      }
    },
    {
      "type": "Feature",
      "properties": {
        "norad_id": 40315,
        "name": "COSMOS 2501 (702K)",
        "group": "gnss",
        "lat": -9.432534593508084,
        "lon": 21.236540482354293,
        "alt_km": 19081.802034448472,
        "timestamp": "2025-12-22T04:03:39.411550+00:00",
        "meta_object_name": "COSMOS 2501 (702K)",
        "meta_object_id": "2014-075A",
        "meta_epoch": "2025-12-19T02:31:27.452640",
        "meta_mean_motion": 2.13101513,
        "meta_eccentricity": 0.0020099,
        "meta_inclination": 63.6146,
        "meta_ra_of_asc_node": 196.6046,
        "meta_arg_of_pericenter": 204.1838,
        "meta_mean_anomaly": 155.7988,
        "meta_ephemeris_type": 0,
        "meta_classification_type": "U",
        "meta_norad_cat_id": 40315,
        "meta_element_set_no": 999,
        "meta_rev_at_epoch": 8601,
        "meta_bstar": 0,
        "meta_mean_motion_dot": 1.06e-06,
        "meta_mean_motion_ddot": 0,
        "tle_line1": "1 40315U 14075A   25353.10517885  .00000106  00000+0  00000+0 0  9998",
        "tle_line2": "2 40315  63.6146 196.6046 0020099 204.1838 155.7988  2.13101513 86014"
      },
      "geometry": {
        "type": "Point",
        "coordinates": [
          21.236540482354293,
          -9.432534593508084
        ]
      }
    },
    {
      "type": "Feature",
      "properties": {
        "norad_id": 40534,
        "name": "GPS BIIF-9  (PRN 26)",
        "group": "gnss",
        "lat": 51.746625047294735,
        "lon": -76.74378277235505,
        "alt_km": 19956.36084646626,
        "timestamp": "2025-12-22T04:03:39.411561+00:00",
        "meta_object_name": "GPS BIIF-9  (PRN 26)",
        "meta_object_id": "2015-013A",
        "meta_epoch": "2025-12-21T01:33:43.050240",
        "meta_mean_motion": 2.00562033,
        "meta_eccentricity": 0.01073869,
        "meta_inclination": 53.1966,
        "meta_ra_of_asc_node": 211.5454,
        "meta_arg_of_pericenter": 38.6862,
        "meta_mean_anomaly": 322.1684,
        "meta_ephemeris_type": 0,
        "meta_classification_type": "U",
        "meta_norad_cat_id": 40534,
        "meta_element_set_no": 999,
        "meta_rev_at_epoch": 7825,
        "meta_bstar": 0,
        "meta_mean_motion_dot": 7.9e-07,
        "meta_mean_motion_ddot": 0,
        "tle_line1": "1 40534U 15013A   25355.06508160  .00000079  00000+0  00000+0 0  9996",
        "tle_line2": "2 40534  53.1966 211.5454 0107386  38.6862 322.1684  2.00562033 78257"
      },
      "geometry": {
        "type": "Point",
        "coordinates": [
          -76.74378277235505,
          51.746625047294735
        ]
      }
    },
    {
      "type": "Feature",
      "properties": {
        "norad_id": 40544,
        "name": "GSAT0203 (GALILEO 7)",
        "group": "gnss",
        "lat": 48.98388485191226,
        "lon": 35.14264775058119,
        "alt_km": 23232.839800683214,
        "timestamp": "2025-12-22T04:03:39.411576+00:00",
        "meta_object_name": "GSAT0203 (GALILEO 7)",
        "meta_object_id": "2015-017A",
        "meta_epoch": "2025-12-20T07:18:34.773696",
        "meta_mean_motion": 1.70475998,
        "meta_eccentricity": 0.00064692,
        "meta_inclination": 56.8445,
        "meta_ra_of_asc_node": 346.4738,
        "meta_arg_of_pericenter": 274.1452,
        "meta_mean_anomaly": 85.7909,
        "meta_ephemeris_type": 0,
        "meta_classification_type": "U",
        "meta_norad_cat_id": 40544,
        "meta_element_set_no": 999,
        "meta_rev_at_epoch": 6615,
        "meta_bstar": 0,
        "meta_mean_motion_dot": -7.1e-07,
        "meta_mean_motion_ddot": 0,
        "tle_line1": "1 40544U 15017A   25354.30456914 -.00000071  00000+0  00000+0 0  9999",
        "tle_line2": "2 40544  56.8445 346.4738 0006469 274.1452  85.7909  1.70475998 66152"
      },
      "geometry": {
        "type": "Point",
        "coordinates": [
          35.14264775058119,
          48.98388485191226
        ]
      }
    }
  ]
}